STARLINK-2622           
1 48360U 21038H   25307.71632097  .00009157  00000+0  63254-3 0  9991
2 48360  53.0535 207.1320 0001079  85.2462 274.8650 15.06418658248036
STARLINK-2591           
1 48361U 21038J   25306.45206130  .00005422  00000+0  38264-3 0  9991
2 48361  53.0523 212.8045 0001107  80.4601 279.6513 15.06398664247848
STARLINK-2578           
1 48362U 21038K   25306.48525132  .00015393  00000+0  10498-2 0  9997
2 48362  53.0539 212.7478 0001245  87.2422 272.8709 15.06406835247857
STARLINK-2626           
1 48363U 21038L   25307.83336806  .00140167  00000+0  13856-2 0  9995
2 48363  53.0512 133.4037 0004905 243.5188 180.6804 15.64934963  5970
STARLINK-2611           
1 48364U 21038M   25306.43964416  .00008588  00000+0  59484-3 0  9993
2 48364  53.0531 208.0265 0001169  96.9682 263.1440 15.06392048247915
STARLINK-2608           
1 48365U 21038N   25306.00468285  .00017809  00000+0  12118-2 0  9998
2 48365  53.0539 209.8196 0001677  81.6436 278.4743 15.06390475247858
STARLINK-2643           
1 48367U 21038Q   25307.71356593  .00009267  00000+0  64018-3 0  9993
2 48367  53.0538 197.1453 0001600  87.2252 272.8920 15.06402968248170
STARLINK-2623           
1 48368U 21038R   25307.69146929 -.00000474  00000+0 -12884-4 0  9999
2 48368  53.0521 197.5247 0002244  89.2461 270.8785 15.06399159248171
STARLINK-2621           
1 48370U 21038T   25306.44559737  .00008370  00000+0  57993-3 0  9999
2 48370  53.0536 202.8429 0001480  72.6683 287.4467 15.06414607247980
STARLINK-2589           
1 48371U 21038U   25307.70251002  .00005134  00000+0  36339-3 0  9990
2 48371  53.0537 197.1978 0001452  86.9413 273.1742 15.06394375248174
STARLINK-2609           
1 48373U 21038W   25306.43454701  .00000003  00000+0  19094-4 0  9992
2 48373  53.0545 202.8878 0001464  90.1872 269.9285 15.06384992247984
STARLINK-2604           
1 48374U 21038X   25307.65832000  .00003818  00000+0  27512-3 0  9990
2 48374  53.0535 197.7439 0001866  94.7786 265.3416 15.06396278248166
STARLINK-2603           
1 48375U 21038Y   25307.68776566  .00005607  00000+0  39509-3 0  9995
2 48375  53.0524 197.2617 0001558  88.2971 271.8196 15.06394905248173
STARLINK-2610           
1 48376U 21038Z   25306.42348669 -.00001025  00000+0 -49975-4 0  9997
2 48376  53.0547 202.9356 0001518  79.8487 280.2673 15.06379208247988
STARLINK-2499           
1 48377U 21038AA  25306.00333061 -.00003061  00000+0 -18686-3 0  9998
2 48377  53.0548 205.3262 0001736  92.6315 267.4873 15.06368752247912
STARLINK-2526           
1 48378U 21038AB  25306.41612682 -.00000376  00000+0 -63461-5 0  9992
2 48378  53.0575 202.9765 0001723 102.4969 257.6213 15.06384835247981
