[{"OBJECT_NAME":"STARLINK-2622","OBJECT_ID":"2021-038H","EPOCH":"2025-11-03T17:11:30.131808","MEAN_MOTION":15.06418658,"ECCENTRICITY":0.0001079,"INCLINATION":53.0535,"RA_OF_ASC_NODE":207.132,"ARG_OF_PERICENTER":85.2462,"MEAN_ANOMALY":274.865,"EPHEMERIS_TYPE":0,"CLASSIFICATION_TYPE":"U","NORAD_CAT_ID":48360,"ELEMENT_SET_NO":999,"REV_AT_EPOCH":24803,"BSTAR":0.00063254,"MEAN_MOTION_DOT":9.157e-5,"MEAN_MOTION_DDOT":0},{"OBJECT_NAME":"STARLINK-2591","OBJECT_ID":"2021-038J","EPOCH":"2025-11-02T10:50:58.096320","MEAN_MOTION":15.06398664,"ECCENTRICITY":0.0001107,"INCLINATION":53.0523,"RA_OF_ASC_NODE":212.8045,"ARG_OF_PERICENTER":80.4601,"MEAN_ANOMALY":279.6513,"EPHEMERIS_TYPE":0,"CLASSIFICATION_TYPE":"U","NORAD_CAT_ID":48361,"ELEMENT_SET_NO":999,"REV_AT_EPOCH":24784,"BSTAR":0.00038264,"MEAN_MOTION_DOT":5.422e-5,"MEAN_MOTION_DDOT":0},{"OBJECT_NAME":"STARLINK-2578","OBJECT_ID":"2021-038K","EPOCH":"2025-11-02T11:38:45.714048","MEAN_MOTION":15.06406835,"ECCENTRICITY":0.0001245,"INCLINATION":53.0539,"RA_OF_ASC_NODE":212.7478,"ARG_OF_PERICENTER":87.2422,"MEAN_ANOMALY":272.8709,"EPHEMERIS_TYPE":0,"CLASSIFICATION_TYPE":"U","NORAD_CAT_ID":48362,"ELEMENT_SET_NO":999,"REV_AT_EPOCH":24785,"BSTAR":0.0010498,"MEAN_MOTION_DOT":0.00015393,"MEAN_MOTION_DDOT":0},{"OBJECT_NAME":"STARLINK-2626","OBJECT_ID":"2021-038L","EPOCH":"2025-11-03T20:00:03.000384","MEAN_MOTION":15.64934963,"ECCENTRICITY":0.0004905,"INCLINATION":53.0512,"RA_OF_ASC_NODE":133.4037,"ARG_OF_PERICENTER":243.5188,"MEAN_ANOMALY":180.6804,"EPHEMERIS_TYPE":0,"CLASSIFICATION_TYPE":"U","NORAD_CAT_ID":48363,"ELEMENT_SET_NO":999,"REV_AT_EPOCH":597,"BSTAR":0.0013856,"MEAN_MOTION_DOT":0.00140167,"MEAN_MOTION_DDOT":0},{"OBJECT_NAME":"STARLINK-2611","OBJECT_ID":"2021-038M","EPOCH":"2025-11-02T10:33:05.255424","MEAN_MOTION":15.06392048,"ECCENTRICITY":0.0001169,"INCLINATION":53.0531,"RA_OF_ASC_NODE":208.0265,"ARG_OF_PERICENTER":96.9682,"MEAN_ANOMALY":263.144,"EPHEMERIS_TYPE":0,"CLASSIFICATION_TYPE":"U","NORAD_CAT_ID":48364,"ELEMENT_SET_NO":999,"REV_AT_EPOCH":24791,"BSTAR":0.00059484,"MEAN_MOTION_DOT":8.588e-5,"MEAN_MOTION_DDOT":0},{"OBJECT_NAME":"STARLINK-2608","OBJECT_ID":"2021-038N","EPOCH":"2025-11-02T00:06:44.598240","MEAN_MOTION":15.06390475,"ECCENTRICITY":0.00016776,"INCLINATION":53.0539,"RA_OF_ASC_NODE":209.8196,"ARG_OF_PERICENTER":81.6436,"MEAN_ANOMALY":278.4743,"EPHEMERIS_TYPE":0,"CLASSIFICATION_TYPE":"U","NORAD_CAT_ID":48365,"ELEMENT_SET_NO":999,"REV_AT_EPOCH":24785,"BSTAR":0.0012117748,"MEAN_MOTION_DOT":0.00017809,"MEAN_MOTION_DDOT":0},{"OBJECT_NAME":"STARLINK-2643","OBJECT_ID":"2021-038Q","EPOCH":"2025-11-03T17:07:32.096352","MEAN_MOTION":15.06402968,"ECCENTRICITY":0.00016,"INCLINATION":53.0538,"RA_OF_ASC_NODE":197.1453,"ARG_OF_PERICENTER":87.2252,"MEAN_ANOMALY":272.892,"EPHEMERIS_TYPE":0,"CLASSIFICATION_TYPE":"U","NORAD_CAT_ID":48367,"ELEMENT_SET_NO":999,"REV_AT_EPOCH":24817,"BSTAR":0.00064018,"MEAN_MOTION_DOT":9.267e-5,"MEAN_MOTION_DDOT":0},{"OBJECT_NAME":"STARLINK-2623","OBJECT_ID":"2021-038R","EPOCH":"2025-11-03T16:35:42.946656","MEAN_MOTION":15.06399159,"ECCENTRICITY":0.0002244,"INCLINATION":53.0521,"RA_OF_ASC_NODE":197.5247,"ARG_OF_PERICENTER":89.2461,"MEAN_ANOMALY":270.8785,"EPHEMERIS_TYPE":0,"CLASSIFICATION_TYPE":"U","NORAD_CAT_ID":48368,"ELEMENT_SET_NO":999,"REV_AT_EPOCH":24817,"BSTAR":-1.2884e-5,"MEAN_MOTION_DOT":-4.74e-6,"MEAN_MOTION_DDOT":0},{"OBJECT_NAME":"STARLINK-2621","OBJECT_ID":"2021-038T","EPOCH":"2025-11-02T10:41:39.612768","MEAN_MOTION":15.06414607,"ECCENTRICITY":0.000148,"INCLINATION":53.0536,"RA_OF_ASC_NODE":202.8429,"ARG_OF_PERICENTER":72.6683,"MEAN_ANOMALY":287.4467,"EPHEMERIS_TYPE":0,"CLASSIFICATION_TYPE":"U","NORAD_CAT_ID":48370,"ELEMENT_SET_NO":999,"REV_AT_EPOCH":24798,"BSTAR":0.00057993,"MEAN_MOTION_DOT":8.37e-5,"MEAN_MOTION_DDOT":0},{"OBJECT_NAME":"STARLINK-2589","OBJECT_ID":"2021-038U","EPOCH":"2025-11-03T16:51:36.865728","MEAN_MOTION":15.06394375,"ECCENTRICITY":0.0001452,"INCLINATION":53.0537,"RA_OF_ASC_NODE":197.1978,"ARG_OF_PERICENTER":86.9413,"MEAN_ANOMALY":273.1742,"EPHEMERIS_TYPE":0,"CLASSIFICATION_TYPE":"U","NORAD_CAT_ID":48371,"ELEMENT_SET_NO":999,"REV_AT_EPOCH":24817,"BSTAR":0.00036339,"MEAN_MOTION_DOT":5.134e-5,"MEAN_MOTION_DDOT":0},{"OBJECT_NAME":"STARLINK-2609","OBJECT_ID":"2021-038W","EPOCH":"2025-11-02T10:25:44.861664","MEAN_MOTION":15.06384992,"ECCENTRICITY":0.0001464,"INCLINATION":53.0545,"RA_OF_ASC_NODE":202.8878,"ARG_OF_PERICENTER":90.1872,"MEAN_ANOMALY":269.9285,"EPHEMERIS_TYPE":0,"CLASSIFICATION_TYPE":"U","NORAD_CAT_ID":48373,"ELEMENT_SET_NO":999,"REV_AT_EPOCH":24798,"BSTAR":1.9094e-5,"MEAN_MOTION_DOT":3.0e-8,"MEAN_MOTION_DDOT":0},{"OBJECT_NAME":"STARLINK-2604","OBJECT_ID":"2021-038X","EPOCH":"2025-11-03T15:47:58.848000","MEAN_MOTION":15.06396278,"ECCENTRICITY":0.0001866,"INCLINATION":53.0535,"RA_OF_ASC_NODE":197.7439,"ARG_OF_PERICENTER":94.7786,"MEAN_ANOMALY":265.3416,"EPHEMERIS_TYPE":0,"CLASSIFICATION_TYPE":"U","NORAD_CAT_ID":48374,"ELEMENT_SET_NO":999,"REV_AT_EPOCH":24816,"BSTAR":0.00027512,"MEAN_MOTION_DOT":3.818e-5,"MEAN_MOTION_DDOT":0},{"OBJECT_NAME":"STARLINK-2603","OBJECT_ID":"2021-038Y","EPOCH":"2025-11-03T16:30:22.953024","MEAN_MOTION":15.06394905,"ECCENTRICITY":0.0001558,"INCLINATION":53.0524,"RA_OF_ASC_NODE":197.2617,"ARG_OF_PERICENTER":88.2971,"MEAN_ANOMALY":271.8196,"EPHEMERIS_TYPE":0,"CLASSIFICATION_TYPE":"U","NORAD_CAT_ID":48375,"ELEMENT_SET_NO":999,"REV_AT_EPOCH":24817,"BSTAR":0.00039509,"MEAN_MOTION_DOT":5.607e-5,"MEAN_MOTION_DDOT":0},{"OBJECT_NAME":"STARLINK-2610","OBJECT_ID":"2021-038Z","EPOCH":"2025-11-02T10:09:49.250016","MEAN_MOTION":15.06379208,"ECCENTRICITY":0.0001518,"INCLINATION":53.0547,"RA_OF_ASC_NODE":202.9356,"ARG_OF_PERICENTER":79.8487,"MEAN_ANOMALY":280.2673,"EPHEMERIS_TYPE":0,"CLASSIFICATION_TYPE":"U","NORAD_CAT_ID":48376,"ELEMENT_SET_NO":999,"REV_AT_EPOCH":24798,"BSTAR":-4.9975e-5,"MEAN_MOTION_DOT":-1.025e-5,"MEAN_MOTION_DDOT":0},{"OBJECT_NAME":"STARLINK-2499","OBJECT_ID":"2021-038AA","EPOCH":"2025-11-02T00:04:47.764704","MEAN_MOTION":15.06368752,"ECCENTRICITY":0.0001736,"INCLINATION":53.0548,"RA_OF_ASC_NODE":205.3262,"ARG_OF_PERICENTER":92.6315,"MEAN_ANOMALY":267.4873,"EPHEMERIS_TYPE":0,"CLASSIFICATION_TYPE":"U","NORAD_CAT_ID":48377,"ELEMENT_SET_NO":999,"REV_AT_EPOCH":24791,"BSTAR":-0.00018685692,"MEAN_MOTION_DOT":-3.061e-5,"MEAN_MOTION_DDOT":0},{"OBJECT_NAME":"STARLINK-2526","OBJECT_ID":"2021-038AB","EPOCH":"2025-11-02T09:59:13.357248","MEAN_MOTION":15.06384835,"ECCENTRICITY":0.0001723,"INCLINATION":53.0575,"RA_OF_ASC_NODE":202.9765,"ARG_OF_PERICENTER":102.4969,"MEAN_ANOMALY":257.6213,"EPHEMERIS_TYPE":0,"CLASSIFICATION_TYPE":"U","NORAD_CAT_ID":48378,"ELEMENT_SET_NO":999,"REV_AT_EPOCH":24798,"BSTAR":-6.3461e-6,"MEAN_MOTION_DOT":-3.76e-6,"MEAN_MOTION_DDOT":0}]
